[{"OBJECT_NAME":"GEESAT-1 09","OBJECT_ID":"2022-058J","EPOCH":"2026-03-09T22:14:58.178400","MEAN_MOTION":14.996745,"ECCENTRICITY":0.0007116,"INCLINATION":49.9974,"RA_OF_ASC_NODE":293.7726,"ARG_OF_PERICENTER":137.6611,"MEAN_ANOMALY":222.4884,"EPHEMERIS_TYPE":0,"CLASSIFICATION_TYPE":"U","NORAD_CAT_ID":52793,"ELEMENT_SET_NO":999,"REV_AT_EPOCH":20534,"BSTAR":0.00045554765,"MEAN_MOTION_DOT":5.429e-5,"MEAN_MOTION_DDOT":0},{"OBJECT_NAME":"STARLINK-32895","OBJECT_ID":"2025-037E","EPOCH":"2026-03-09T22:15:33.015744","MEAN_MOTION":14.98328804,"ECCENTRICITY":0.00026086,"INCLINATION":70.003,"RA_OF_ASC_NODE":354.0166,"ARG_OF_PERICENTER":264.7372,"MEAN_ANOMALY":95.3489,"EPHEMERIS_TYPE":0,"CLASSIFICATION_TYPE":"U","NORAD_CAT_ID":63081,"ELEMENT_SET_NO":999,"REV_AT_EPOCH":5849,"BSTAR":0.0004794443,"MEAN_MOTION_DOT":5.632e-5,"MEAN_MOTION_DDOT":0}]
